{
  "norad_id": 54672,
  "name": "ONEWEB-0608",
  "history": [
    {
      "epoch": "2026-03-28T17:50:21.509664Z",
      "apogee_km": 1178.721251244796,
      "perigee_km": 1176.7854321392542,
      "latitude_deg": -6.0434625086519876e-05,
      "longitude_deg": 166.24280399301026,
      "height_km": 1180.9543124260495,
      "semi_major_axis_km": 7555.890341692025,
      "eccentricity": 0.0001281,
      "inclination_deg": 87.9184,
      "raan_deg": 259.9918,
      "arg_perigee_deg": 107.9446,
      "mean_anomaly_deg": 252.1827,
      "mean_motion_rev_day": 13.21826007
    },
    {
      "epoch": "2026-03-29T04:44:22.557120Z",
      "apogee_km": 1178.7252578694533,
      "perigee_km": 1176.781882814761,
      "latitude_deg": 5.610797141199843e-05,
      "longitude_deg": 2.2000847649094237,
      "height_km": 1180.9697463219195,
      "semi_major_axis_km": 7555.890570342107,
      "eccentricity": 0.0001286,
      "inclination_deg": 87.9184,
      "raan_deg": 259.9011,
      "arg_perigee_deg": 108.8178,
      "mean_anomaly_deg": 251.3096,
      "mean_motion_rev_day": 13.21825947
    },
    {
      "epoch": "2026-03-30T04:21:24.789888Z",
      "apogee_km": 1178.7422245164908,
      "perigee_km": 1176.7657545514485,
      "latitude_deg": -9.26783051479669e-06,
      "longitude_deg": 6.7743523110527715,
      "height_km": 1180.9892750507963,
      "semi_major_axis_km": 7555.890989533969,
      "eccentricity": 0.00013079,
      "inclination_deg": 87.9184,
      "raan_deg": 259.7046,
      "arg_perigee_deg": 109.6642,
      "mean_anomaly_deg": 250.4633,
      "mean_motion_rev_day": 13.21825837
    },
    {
      "epoch": "2026-03-30T11:37:25.426848Z",
      "apogee_km": 1178.7435871344596,
      "perigee_km": 1176.7615261859564,
      "latitude_deg": -2.2229883770688173e-05,
      "longitude_deg": -102.58724046984828,
      "height_km": 1180.993760691725,
      "semi_major_axis_km": 7555.889556660208,
      "eccentricity": 0.00013116,
      "inclination_deg": 87.9184,
      "raan_deg": 259.6441,
      "arg_perigee_deg": 109.97,
      "mean_anomaly_deg": 250.1575,
      "mean_motion_rev_day": 13.21826213
    },
    {
      "epoch": "2026-03-30T20:42:26.291520Z",
      "apogee_km": 1178.7489705961698,
      "perigee_km": 1176.7578423562554,
      "latitude_deg": 4.165807765285389e-05,
      "longitude_deg": 120.71051036916664,
      "height_km": 1181.0012451824996,
      "semi_major_axis_km": 7555.890406476213,
      "eccentricity": 0.00013176,
      "inclination_deg": 87.9184,
      "raan_deg": 259.5685,
      "arg_perigee_deg": 110.2826,
      "mean_anomaly_deg": 249.845,
      "mean_motion_rev_day": 13.2182599
    },
    {
      "epoch": "2026-03-31T16:41:28.132800Z",
      "apogee_km": 1178.7695898862457,
      "perigee_km": 1176.737055389457,
      "latitude_deg": 7.82429132156407e-06,
      "longitude_deg": 179.96583093720218,
      "height_km": 1181.019058942878,
      "semi_major_axis_km": 7555.890322637852,
      "eccentricity": 0.0001345,
      "inclination_deg": 87.9184,
      "raan_deg": 259.4022,
      "arg_perigee_deg": 110.9299,
      "mean_anomaly_deg": 249.1979,
      "mean_motion_rev_day": 13.21826012
    },
    {
      "epoch": "2026-04-01T18:07:30.423936Z",
      "apogee_km": 1178.7883880901845,
      "perigee_km": 1176.712030285099,
      "latitude_deg": 5.080738722108949e-06,
      "longitude_deg": 157.20004977462003,
      "height_km": 1181.0419185939643,
      "semi_major_axis_km": 7555.887209187641,
      "eccentricity": 0.0001374,
      "inclination_deg": 87.9186,
      "raan_deg": 259.1905,
      "arg_perigee_deg": 112.0073,
      "mean_anomaly_deg": 248.1207,
      "mean_motion_rev_day": 13.21826829
    },
    {
      "epoch": "2026-04-02T10:28:32.038752Z",
      "apogee_km": 1178.7933904708016,
      "perigee_km": 1176.7140093501866,
      "latitude_deg": 7.223767278399112e-05,
      "longitude_deg": -88.86426465263372,
      "height_km": 1181.0600977681092,
      "semi_major_axis_km": 7555.890699910494,
      "eccentricity": 0.0001376,
      "inclination_deg": 87.9187,
      "raan_deg": 259.0544,
      "arg_perigee_deg": 112.8491,
      "mean_anomaly_deg": 247.2789,
      "mean_motion_rev_day": 13.21825913
    },
    {
      "epoch": "2026-04-02T21:22:33.060288Z",
      "apogee_km": 1178.8088060946548,
      "perigee_km": 1176.6972370692238,
      "latitude_deg": -1.539874546336676e-05,
      "longitude_deg": 107.09301734863114,
      "height_km": 1181.0715585051878,
      "semi_major_axis_km": 7555.890021581939,
      "eccentricity": 0.00013973,
      "inclination_deg": 87.9187,
      "raan_deg": 258.9636,
      "arg_perigee_deg": 113.1971,
      "mean_anomaly_deg": 246.931,
      "mean_motion_rev_day": 13.21826091
    },
    {
      "epoch": "2026-04-03T20:59:35.306016Z",
      "apogee_km": 1178.8320741571506,
      "perigee_km": 1176.6756229089779,
      "latitude_deg": -6.64313350825294e-05,
      "longitude_deg": 111.66723065902936,
      "height_km": 1181.0906897347193,
      "semi_major_axis_km": 7555.890848533064,
      "eccentricity": 0.0001427,
      "inclination_deg": 87.9188,
      "raan_deg": 258.7671,
      "arg_perigee_deg": 113.7469,
      "mean_anomaly_deg": 246.3814,
      "mean_motion_rev_day": 13.21825874
    },
    {
      "epoch": "2026-04-04T04:15:35.956800Z",
      "apogee_km": 1178.8426300035298,
      "perigee_km": 1176.6642667872575,
      "latitude_deg": 4.735686347766279e-05,
      "longitude_deg": 2.305684175003397,
      "height_km": 1181.089422144713,
      "semi_major_axis_km": 7555.890448395394,
      "eccentricity": 0.00014415,
      "inclination_deg": 87.919,
      "raan_deg": 258.7067,
      "arg_perigee_deg": 113.4463,
      "mean_anomaly_deg": 246.6823,
      "mean_motion_rev_day": 13.21825979
    },
    {
      "epoch": "2026-04-05T11:08:38.764320Z",
      "apogee_km": 1178.8626500941227,
      "perigee_km": 1176.6392545052786,
      "latitude_deg": -6.333503106497979e-05,
      "longitude_deg": -102.48128489963997,
      "height_km": 1181.1113372679074,
      "semi_major_axis_km": 7555.8879522997,
      "eccentricity": 0.00014713,
      "inclination_deg": 87.9192,
      "raan_deg": 258.4498,
      "arg_perigee_deg": 114.3177,
      "mean_anomaly_deg": 245.811,
      "mean_motion_rev_day": 13.21826634
    },
    {
      "epoch": "2026-04-05T20:13:39.609120Z",
      "apogee_km": 1178.8695705536556,
      "perigee_km": 1176.6330276171266,
      "latitude_deg": -3.526712628744119e-05,
      "longitude_deg": 120.8166465550968,
      "height_km": 1181.1171277157378,
      "semi_major_axis_km": 7555.888299085391,
      "eccentricity": 0.000148,
      "inclination_deg": 87.9193,
      "raan_deg": 258.3743,
      "arg_perigee_deg": 114.4724,
      "mean_anomaly_deg": 245.6564,
      "mean_motion_rev_day": 13.21826543
    },
    {
      "epoch": "2026-04-05T23:51:39.966912Z",
      "apogee_km": 1178.872325382028,
      "perigee_km": 1176.6321553400458,
      "latitude_deg": 3.6152606127897164e-05,
      "longitude_deg": 66.13553828607463,
      "height_km": 1181.1182331424488,
      "semi_major_axis_km": 7555.889240361037,
      "eccentricity": 0.00014824,
      "inclination_deg": 87.9192,
      "raan_deg": 258.3439,
      "arg_perigee_deg": 114.4403,
      "mean_anomaly_deg": 245.6886,
      "mean_motion_rev_day": 13.21826296
    },
    {
      "epoch": "2026-04-07T12:11:43.276992Z",
      "apogee_km": 1178.9205595626436,
      "perigee_km": 1176.5824654213366,
      "latitude_deg": 1.4943195449446454e-05,
      "longitude_deg": -120.67275320189566,
      "height_km": 1181.1597208306202,
      "semi_major_axis_km": 7555.88851249199,
      "eccentricity": 0.00015472,
      "inclination_deg": 87.9193,
      "raan_deg": 258.0416,
      "arg_perigee_deg": 115.6316,
      "mean_anomaly_deg": 244.4978,
      "mean_motion_rev_day": 13.21826487
    },
    {
      "epoch": "2026-04-07T17:38:43.772640Z",
      "apogee_km": 1178.9246799166722,
      "perigee_km": 1176.5763100832273,
      "latitude_deg": -7.605573312247869e-05,
      "longitude_deg": 157.3060484418451,
      "height_km": 1181.1581325895777,
      "semi_major_axis_km": 7555.88749499995,
      "eccentricity": 0.0001554,
      "inclination_deg": 87.9193,
      "raan_deg": 257.9963,
      "arg_perigee_deg": 115.4805,
      "mean_anomaly_deg": 244.6489,
      "mean_motion_rev_day": 13.21826754
    },
    {
      "epoch": "2026-04-08T09:59:45.322656Z",
      "apogee_km": 1178.9363275753249,
      "perigee_km": 1176.5681607684173,
      "latitude_deg": 1.6287052020546326e-05,
      "longitude_deg": -88.75799700555932,
      "height_km": 1181.167908965553,
      "semi_major_axis_km": 7555.889244171871,
      "eccentricity": 0.00015671,
      "inclination_deg": 87.9194,
      "raan_deg": 257.8602,
      "arg_perigee_deg": 115.6842,
      "mean_anomaly_deg": 244.4454,
      "mean_motion_rev_day": 13.21826295
    },
    {
      "epoch": "2026-04-09T16:52:48.149184Z",
      "apogee_km": 1178.9633692468606,
      "perigee_km": 1176.5349074419973,
      "latitude_deg": 2.9755713815000885e-06,
      "longitude_deg": 166.4549557890808,
      "height_km": 1181.177706773749,
      "semi_major_axis_km": 7555.886138344429,
      "eccentricity": 0.0001607,
      "inclination_deg": 87.9197,
      "raan_deg": 257.6033,
      "arg_perigee_deg": 115.6785,
      "mean_anomaly_deg": 244.4515,
      "mean_motion_rev_day": 13.2182711
    },
    {
      "epoch": "2026-04-10T03:46:49.181952Z",
      "apogee_km": 1178.9686955589887,
      "perigee_km": 1176.5311664350493,
      "latitude_deg": -1.4092698669612297e-05,
      "longitude_deg": 2.4123918582783466,
      "height_km": 1181.1866152645125,
      "semi_major_axis_km": 7555.886930997019,
      "eccentricity": 0.0001613,
      "inclination_deg": 87.9198,
      "raan_deg": 257.5127,
      "arg_perigee_deg": 115.9997,
      "mean_anomaly_deg": 244.1303,
      "mean_motion_rev_day": 13.21826902
    }
  ]
}